ONEWEB-0716             
1 55177U 23004AP  25144.78353198 -.00000020  00000+0 -85744-4 0  9999
2 55177  87.9063  83.2174 0001805  79.4222 280.7113 13.17648979116437
ONEWEB-0717             
1 55178U 23004AQ  25144.84258520  .00000007  00000+0 -15280-4 0  9992
2 55178  87.9064  83.1651 0002785  73.4039 286.7398 13.17648003116491
ONEWEB-0719             
1 55179U 23004AR  25144.77676724  .00000023  00000+0  26694-4 0  9993
2 55179  87.9062  83.1621 0001894  76.0053 284.1289 13.17647751116436
ONEWEB-0530             
1 55796U 23029A   25144.60964868  .00000078  00000+0  16091-3 0  9995
2 55796  87.9272 351.8667 0002072  72.3107 287.8252 13.20771877109856
ONEWEB-0534             
1 55797U 23029B   25144.59700211  .00000104  00000+0  22399-3 0  9992
2 55797  87.9272 351.8767 0001692  86.1707 273.9620 13.20770625109859
ONEWEB-0556             
1 55798U 23029C   25144.60330380  .00000077  00000+0  15707-3 0  9995
2 55798  87.9272 351.8677 0001470  60.3554 299.7726 13.20772994109852
ONEWEB-0562             
1 55799U 23029D   25144.59069435  .00000107  00000+0  23032-3 0  9998
2 55799  87.9273 351.8630 0002124  59.5337 300.6006 13.20771194109853
ONEWEB-0563             
1 55800U 23029E   25144.58436907 -.00000213  00000+0 -55632-3 0  9993
2 55800  87.9270 351.8787 0001514  91.0448 269.0859 13.20770683109847
